{
  "type": "FeatureCollection",
  "features": [
    {
      "type": "Feature",
      "properties": {
        "name": "Ладожское озеро"
      },
      "bbox": [31.114999, 60.018549, 31.605264, 60.167474],
      "geometry": {
        "type": "Polygon",
        "coordinates": [
          [
            [31.114999, 60.018549],
            [31.605264, 60.018549],
            [31.605264, 60.167474],
            [31.114999, 60.167474],
            [31.114999, 60.018549]
          ]
        ]
      }
    },
    {
      "type": "Feature",
      "properties": {
        "name": "Шереметьево"
      },
      "bbox": [37.385142, 55.960323, 37.442777, 55.986979],
      "geometry": {
        "type": "Polygon",
        "coordinates": [
          [
            [37.385142, 55.960323],
            [37.442777, 55.960323],
            [37.442777, 55.986979],
            [37.385142, 55.986979],
            [37.385142, 55.960323]
          ]
        ]
      }
    }
  ]
}
